INTELSAT 21 (IS-21)     
1 38749U 12045A   26168.25094140 -.00000289  00000+0  00000+0 0  9999
2 38749   0.0150 346.4493 0001362 119.4778 191.9146  1.00270139 50527
INTELSAT 23 (IS-23)     
1 38867U 12057A   26168.24199222 -.00000289  00000+0  00000+0 0  9999
2 38867   0.0155 308.9699 0000176  53.3838 297.2665  1.00267858 49954
FM-6                    
1 39360U 13058A   26167.73306360  .00000000  00000+0  00000+0 0  9996
2 39360   0.0298  41.7756 0003260 152.1782 218.6366  1.00292192 46063
INTELSAT 30 (IS-30)     
1 40271U 14062A   26168.32405734 -.00000155  00000+0  00000+0 0  9998
2 40271   0.0268  50.1227 0001218 328.9119 268.1517  1.00270102  6799
DIRECTV 14              
1 40333U 14078B   26168.27287894 -.00000129  00000+0  00000+0 0  9994
2 40333   0.0129  24.2371 0000321 314.8750 285.4151  1.00271220 42041
DIRECTV 15              
1 40663U 15026A   26168.32850883 -.00000106  00000+0  00000+0 0  9999
2 40663   0.0158  26.3598 0000428 291.9387 322.6677  1.00267948 40465
SKY MEXICO-1            
1 40664U 15026B   26168.40600354 -.00000239  00000+0  00000+0 0  9992
2 40664   0.0167  15.9667 0002058  91.4728 225.5763  1.00270113 40454
INTELSAT 34 (IS-34)     
1 40874U 15039A   26168.24912036 -.00000289  00000+0  00000+0 0  9999
2 40874   0.0104 347.3582 0000495 340.7484 331.5954  1.00269802 39639
INTELSAT 31 (IS-31)     
1 41581U 16035A   26168.32405734 -.00000155  00000+0  00000+0 0  9995
2 41581   0.0151 275.6006 0001091 339.5655  32.0181  1.00269660 36689
INTELSAT 36 (IS-36)     
1 41747U 16053A   26167.94447066 -.00000027  00000+0  00000+0 0  9998
2 41747   0.0113  10.1532 0002181 322.5607 340.9958  1.00270845 35956
INTELSAT 32E (IS-32E)   
1 41945U 17007B   26168.31415454 -.00000273  00000+0  00000+0 0  9999
2 41945   0.0167 353.5819 0000671 313.2122  28.6877  1.00269053 34226
INTELSAT 35E (IS-35E)   
1 42818U 17041A   26167.74935700 -.00000241  00000+0  00000+0 0  9999
2 42818   0.0182 331.6195 0001598 107.3554  61.2978  1.00268682 32812
INTELSAT 37E (IS-37E)   
1 42950U 17059A   26167.75256368 -.00000143  00000+0  00000+0 0  9993
2 42950   0.0164  21.9885 0002368  84.8898  51.0770  1.00271710 32060
AZERSPACE 2 (IS-38)     
1 43632U 18074A   26167.76510329  .00000134  00000+0  00000+0 0  9999
2 43632   0.0176   5.0049 0001230  81.7615 138.8031  1.00270536 28442
HORIZONS-3E             
1 43633U 18074B   26168.41989110 -.00000035  00000+0  00000+0 0  9992
2 43633   0.0179 171.3721 0000925 105.3335 309.1289  1.00271561 28348
AT&T T-16               
1 44333U 19034A   26167.66486257 -.00000117  00000+0  00000+0 0  9998
2 44333   0.0218  61.0762 0000803 214.9067 127.4309  1.00268512 25628
INTELSAT 39 (IS-39)     
1 44476U 19049B   26167.93893807  .00000031  00000+0  00000+0 0  9999
2 44476   0.0008 356.4174 0000944 318.0874 350.6593  1.00269114 25128
GALAXY 30 (G-30)        
1 46114U 20056C   26168.46842113  .00000032  00000+0  00000+0 0  9994
2 46114   0.0129  49.2349 0002124  37.4194 222.6923  1.00271406 21299
GALAXY 33 (G-33)        
1 54026U 22128A   26168.46624870  .00000074  00000+0  00000+0 0  9991
2 54026   0.0131  31.1837 0001636  57.2670 212.1255  1.00272194 13749
GALAXY 34 (G-34)        
1 54027U 22128B   26168.47683766  .00000054  00000+0  00000+0 0  9990
2 54027   0.0155  11.8592 0001427  84.1068 212.4267  1.00274848 13910
GALAXY 31 (G-31)        
1 54243U 22153A   26168.31545564  .00000009  00000+0  00000+0 0  9994
2 54243   0.0133  48.6021 0001040  27.9435 181.5754  1.00271162  7135
GALAXY 32 (G-32)        
1 54244U 22153B   26165.95583885 -.00000197  00000+0  00000+0 0  9999
2 54244   0.0165 349.6788 0015287 254.3091 272.5395  1.00491998 13126
GALAXY 35 (G-35)        
1 54741U 22170A   26168.32897903 -.00000166  00000+0  00000+0 0  9999
2 54741   0.0182  49.6252 0001865  37.6461 203.6255  1.00270024 12898
GALAXY 36 (G-36)        
1 54742U 22170B   26167.59581399 -.00000187  00000+0  00000+0 0  9990
2 54742   0.0179 256.2701 0002502 187.9042 306.1810  1.00270255 12761
GALAXY 37 (G-37)        
1 57493U 23112A   26168.46786137  .00000043  00000+0  00000+0 0  9997
2 57493   0.0171 327.7176 0001745 114.3436 225.0902  1.00272176 10547
